STARLINK-1470           
1 45772U 20038AU  26068.60892913  .00054678  00000+0  19687-2 0  9990
2 45772  53.0480 174.6971 0002444  12.8687 347.2373 15.28074860317065
STARLINK-35577          
1 66538U 25265Y   26068.95059529  .00024426  00000+0  89422-3 0  9999
2 66538  42.9964 276.4329 0000516  50.9158 309.1739 15.27579076 17152
